{
    "links": {
        "self": "http://www.neowsapp.com/rest/v1/neo/3560912?api_key=iIulBulltgU6a56xZRHN4H3l9WmuAYTsLGpBGhQ2"
    },
    "id": "3560912",
    "neo_reference_id": "3560912",
    "name": "(2011 FE41)",
    "designation": "2011 FE41",
    "nasa_jpl_url": "http://ssd.jpl.nasa.gov/sbdb.cgi?sstr=3560912",
    "absolute_magnitude_h": 20.5,
    "estimated_diameter": {
        "kilometers": {
            "estimated_diameter_min": 0.2111324448,
            "estimated_diameter_max": 0.4721064988
        },
        "meters": {
            "estimated_diameter_min": 211.1324447897,
            "estimated_diameter_max": 472.1064988055
        },
        "miles": {
            "estimated_diameter_min": 0.1311915784,
            "estimated_diameter_max": 0.2933532873
        },
        "feet": {
            "estimated_diameter_min": 692.6917701639,
            "estimated_diameter_max": 1548.9058855411
        }
    },
    "is_potentially_hazardous_asteroid": false,
    "close_approach_data": [
        {
            "close_approach_date": "2011-08-03",
            "close_approach_date_full": "2011-Aug-03 14:29",
            "epoch_date_close_approach": 1312381740000,
            "relative_velocity": {
                "kilometers_per_second": "21.9981412298",
                "kilometers_per_hour": "79193.3084274568",
                "miles_per_hour": "49207.6421170495"
            },
            "miss_distance": {
                "astronomical": "0.4491258896",
                "lunar": "174.7099710544",
                "kilometers": "67188276.446015152",
                "miles": "41748859.0632350176"
            },
            "orbiting_body": "Earth"
        }
    ],
    "orbital_data": {
        "orbit_id": "6",
        "orbit_determination_date": "2017-04-06 08:53:56",
        "first_observation_date": "2011-03-30",
        "last_observation_date": "2011-04-28",
        "data_arc_in_days": 29,
        "observations_used": 17,
        "orbit_uncertainty": "8",
        "minimum_orbit_intersection": ".13007",
        "jupiter_tisserand_invariant": "3.816",
        "epoch_osculation": "2455652.5",
        "eccentricity": ".6727195481354273",
        "semi_major_axis": "1.752084638552164",
        "inclination": "9.928139539510997",
        "ascending_node_longitude": "354.5526480928152",
        "orbital_period": "847.0929158491775",
        "perihelion_distance": ".5734230522103286",
        "perihelion_argument": "322.7544697674356",
        "aphelion_distance": "2.930746224893999",
        "perihelion_time": "2455779.633055308457",
        "mean_anomaly": "305.9706260615295",
        "mean_motion": ".4249828953404882",
        "equinox": "J2000",
        "orbit_class": {
            "orbit_class_type": "APO",
            "orbit_class_description": "Near-Earth asteroid orbits which cross the Earth’s orbit similar to that of 1862 Apollo",
            "orbit_class_range": "a (semi-major axis) > 1.0 AU; q (perihelion) < 1.017 AU"
        }
    },
    "is_sentry_object": false
}